ONEWEB-0228             
1 48780U 21045P   24166.56866763  .00000126  00000+0  30040-3 0  9993
2 48780  87.9037  44.9706 0001955  81.9693 278.1659 13.15547002148008
